{"fetched_at":"2026-07-12T07:15:44.940Z","source":"https://celestrak.org/NORAD/elements/gp.php?NAME=JILIN&FORMAT=JSON","constellation":"jilin-1-kuanfu","records":[{"OBJECT_NAME":"JILIN-1 KUANFU 01","OBJECT_ID":"2020-003A","EPOCH":"2026-07-11T22:10:32.392128","CLASSIFICATION_TYPE":"U","MEAN_MOTION":15.1085641,"ECCENTRICITY":0.00089667,"INCLINATION":97.5021,"RA_OF_ASC_NODE":266.3973,"ARG_OF_PERICENTER":209.0125,"MEAN_ANOMALY":151.0608,"EPHEMERIS_TYPE":0,"NORAD_CAT_ID":45016,"ELEMENT_SET_NO":999,"REV_AT_EPOCH":35906,"BSTAR":0.00010102539,"MEAN_MOTION_DOT":0.00001618,"MEAN_MOTION_DDOT":0},{"OBJECT_NAME":"JILIN-1 KUANFU-01B","OBJECT_ID":"2021-061A","EPOCH":"2026-07-11T23:03:01.384416","CLASSIFICATION_TYPE":"U","MEAN_MOTION":15.09796519,"ECCENTRICITY":0.00063537,"INCLINATION":97.5201,"RA_OF_ASC_NODE":268.6938,"ARG_OF_PERICENTER":348.5111,"MEAN_ANOMALY":11.5972,"EPHEMERIS_TYPE":0,"NORAD_CAT_ID":49003,"ELEMENT_SET_NO":999,"REV_AT_EPOCH":27708,"BSTAR":0.00011136566,"MEAN_MOTION_DOT":0.00001737,"MEAN_MOTION_DDOT":0},{"OBJECT_NAME":"JILIN-1 KUANFU 01C","OBJECT_ID":"2022-048A","EPOCH":"2026-07-11T22:50:40.691040","CLASSIFICATION_TYPE":"U","MEAN_MOTION":15.09589852,"ECCENTRICITY":0.00170798,"INCLINATION":97.5251,"RA_OF_ASC_NODE":269.6745,"ARG_OF_PERICENTER":231.9462,"MEAN_ANOMALY":128.0226,"EPHEMERIS_TYPE":0,"NORAD_CAT_ID":52443,"ELEMENT_SET_NO":999,"REV_AT_EPOCH":23093,"BSTAR":0.00011687457,"MEAN_MOTION_DOT":0.00001819,"MEAN_MOTION_DDOT":0},{"OBJECT_NAME":"JILIN-1 KUANFU 02A","OBJECT_ID":"2023-127A","EPOCH":"2026-07-11T21:46:50.100384","CLASSIFICATION_TYPE":"U","MEAN_MOTION":15.10796616,"ECCENTRICITY":0.00100557,"INCLINATION":97.557,"RA_OF_ASC_NODE":286.4135,"ARG_OF_PERICENTER":249.4056,"MEAN_ANOMALY":110.6095,"EPHEMERIS_TYPE":0,"NORAD_CAT_ID":57696,"ELEMENT_SET_NO":999,"REV_AT_EPOCH":15936,"BSTAR":0.00012750785,"MEAN_MOTION_DOT":0.00002055,"MEAN_MOTION_DDOT":0},{"OBJECT_NAME":"JILIN-01 KUANFU 02B 1","OBJECT_ID":"2024-169A","EPOCH":"2026-07-11T22:01:07.871808","CLASSIFICATION_TYPE":"U","MEAN_MOTION":15.09046013,"ECCENTRICITY":0.00017763,"INCLINATION":97.558,"RA_OF_ASC_NODE":282.0594,"ARG_OF_PERICENTER":357.7886,"MEAN_ANOMALY":2.3335,"EPHEMERIS_TYPE":0,"NORAD_CAT_ID":61189,"ELEMENT_SET_NO":999,"REV_AT_EPOCH":9955,"BSTAR":0.00015074784,"MEAN_MOTION_DOT":0.00002323,"MEAN_MOTION_DDOT":0},{"OBJECT_NAME":"JILIN-01 KUANFU 02B 2","OBJECT_ID":"2024-169B","EPOCH":"2026-07-11T21:31:39.487584","CLASSIFICATION_TYPE":"U","MEAN_MOTION":15.09006854,"ECCENTRICITY":0.00047972,"INCLINATION":97.5571,"RA_OF_ASC_NODE":281.4246,"ARG_OF_PERICENTER":294.5038,"MEAN_ANOMALY":65.569,"EPHEMERIS_TYPE":0,"NORAD_CAT_ID":61190,"ELEMENT_SET_NO":999,"REV_AT_EPOCH":9955,"BSTAR":0.00010828019,"MEAN_MOTION_DOT":0.00001649,"MEAN_MOTION_DDOT":0},{"OBJECT_NAME":"JILIN-01 KUANFU 02B 3","OBJECT_ID":"2024-169C","EPOCH":"2026-07-11T21:44:39.336576","CLASSIFICATION_TYPE":"U","MEAN_MOTION":15.0904596,"ECCENTRICITY":0.00127525,"INCLINATION":97.5569,"RA_OF_ASC_NODE":281.8663,"ARG_OF_PERICENTER":217.24,"MEAN_ANOMALY":142.7946,"EPHEMERIS_TYPE":0,"NORAD_CAT_ID":61191,"ELEMENT_SET_NO":999,"REV_AT_EPOCH":9955,"BSTAR":0.00011971232,"MEAN_MOTION_DOT":0.00001834,"MEAN_MOTION_DDOT":0},{"OBJECT_NAME":"JILIN-01 KUANFU 02B 4","OBJECT_ID":"2024-169D","EPOCH":"2026-07-11T22:35:07.768896","CLASSIFICATION_TYPE":"U","MEAN_MOTION":15.09027101,"ECCENTRICITY":0.00137118,"INCLINATION":97.5529,"RA_OF_ASC_NODE":281.4286,"ARG_OF_PERICENTER":174.6924,"MEAN_ANOMALY":185.4453,"EPHEMERIS_TYPE":0,"NORAD_CAT_ID":61192,"ELEMENT_SET_NO":999,"REV_AT_EPOCH":9956,"BSTAR":0.00015473047,"MEAN_MOTION_DOT":0.00002389,"MEAN_MOTION_DDOT":0},{"OBJECT_NAME":"JILIN-01 KUANFU 02B 5","OBJECT_ID":"2024-169E","EPOCH":"2026-07-11T22:16:33.760128","CLASSIFICATION_TYPE":"U","MEAN_MOTION":15.09062264,"ECCENTRICITY":0.00129235,"INCLINATION":97.5579,"RA_OF_ASC_NODE":282.2106,"ARG_OF_PERICENTER":198.8535,"MEAN_ANOMALY":161.2217,"EPHEMERIS_TYPE":0,"NORAD_CAT_ID":61193,"ELEMENT_SET_NO":999,"REV_AT_EPOCH":9956,"BSTAR":0.00016996256,"MEAN_MOTION_DOT":0.00002632,"MEAN_MOTION_DDOT":0},{"OBJECT_NAME":"JILIN-01 KUANFU 02B 6","OBJECT_ID":"2024-169F","EPOCH":"2026-07-11T22:50:27.560832","CLASSIFICATION_TYPE":"U","MEAN_MOTION":15.09020412,"ECCENTRICITY":0.00153901,"INCLINATION":97.5557,"RA_OF_ASC_NODE":282.1273,"ARG_OF_PERICENTER":233.1367,"MEAN_ANOMALY":126.8452,"EPHEMERIS_TYPE":0,"NORAD_CAT_ID":61194,"ELEMENT_SET_NO":999,"REV_AT_EPOCH":9957,"BSTAR":0.00011003731,"MEAN_MOTION_DOT":0.00001681,"MEAN_MOTION_DDOT":0}]}
