JILIN-1 KUANFU 01       
1 45016U 20003A   26192.92398602  .00001618  00000+0  10103-3 0  9993
2 45016  97.5021 266.3973 0008966 209.0125 151.0608 15.10856410359061
JILIN-1 KUANFU-01B      
1 49003U 21061A   26192.96043269  .00001737  00000+0  11137-3 0  9998
2 49003  97.5201 268.6938 0006353 348.5111  11.5972 15.09796519277085
JILIN-1 KUANFU 01C      
1 52443U 22048A   26192.95185985  .00001819  00000+0  11687-3 0  9998
2 52443  97.5251 269.6745 0017079 231.9462 128.0226 15.09589852230939
JILIN-1 KUANFU 02A      
1 57696U 23127A   26192.90752431  .00002055  00000+0  12751-3 0  9999
2 57696  97.5570 286.4135 0010055 249.4056 110.6095 15.10796616159366
JILIN-01 KUANFU 02B 1   
1 61189U 24169A   26192.91745222  .00002323  00000+0  15075-3 0  9999
2 61189  97.5580 282.0594 0001776 357.7886   2.3335 15.09046013 99559
JILIN-01 KUANFU 02B 2   
1 61190U 24169B   26192.89698481  .00001649  00000+0  10828-3 0  9993
2 61190  97.5571 281.4246 0004797 294.5038  65.5690 15.09006854 99555
JILIN-01 KUANFU 02B 3   
1 61191U 24169C   26192.90601084  .00001834  00000+0  11971-3 0  9995
2 61191  97.5569 281.8663 0012752 217.2400 142.7946 15.09045960 99558
JILIN-01 KUANFU 02B 4   
1 61192U 24169D   26192.94106214  .00002389  00000+0  15473-3 0  9992
2 61192  97.5529 281.4286 0013711 174.6924 185.4453 15.09027101 99560
JILIN-01 KUANFU 02B 5   
1 61193U 24169E   26192.92816852  .00002632  00000+0  16996-3 0  9999
2 61193  97.5579 282.2106 0012923 198.8535 161.2217 15.09062264 99565
JILIN-01 KUANFU 02B 6   
1 61194U 24169F   26192.95170788  .00001681  00000+0  11004-3 0  9992
2 61194  97.5557 282.1273 0015390 233.1367 126.8452 15.09020412 99571
